OBJECT_NAME,OBJECT_ID,EPOCH,MEAN_MOTION,ECCENTRICITY,INCLINATION,RA_OF_ASC_NODE,ARG_OF_PERICENTER,MEAN_ANOMALY,EPHEMERIS_TYPE,CLASSIFICATION_TYPE,NORAD_CAT_ID,ELEMENT_SET_NO,REV_AT_EPOCH,BSTAR,MEAN_MOTION_DOT,MEAN_MOTION_DDOT
FENGYUN 1C DEB,1999-025ART,2021-02-28T01:22:12.147456,13.99960663,.0101797,99.1112,3.5568,89.8078,271.4751,0,U,30709,999,71423,.1062E-2,.1589E-4,0
FENGYUN 1C DEB,1999-025ARU,2021-03-01T02:47:40.180128,13.79977880,.0258566,102.7451,27.4973,190.9723,233.2897,0,U,30710,999,70594,.45826E-3,.54E-5,0
FENGYUN 1C DEB,1999-025ARY,2021-03-01T10:04:09.228864,13.99166048,.0069249,98.9784,131.4822,85.1829,335.3762,0,U,30714,999,71531,.38601E-3,.528E-5,0
FENGYUN 1C DEB,1999-025ARZ,2021-03-01T12:59:32.410176,14.03523791,.0075179,99.1080,107.3949,11.1367,349.1442,0,U,30715,999,71603,.49875E-3,.756E-5,0
FENGYUN 1C DEB,1999-025ASA,2021-03-01T12:41:31.857216,14.27540875,.0056214,98.8191,160.4948,235.0617,256.8290,0,U,30716,999,72652,.52378E-3,.1264E-4,0
FENGYUN 1C DEB,1999-025ASB,2021-03-01T12:34:22.003392,14.09729882,.0056917,99.1410,84.4788,146.9355,213.5393,0,U,30717,999,71851,.35258E-3,.582E-5,0
FENGYUN 1C DEB,1999-025ASC,2021-03-01T09:57:14.361984,14.11928188,.0068802,99.0003,112.3598,86.1874,39.9011,0,U,30718,999,72040,.31126E-3,.537E-5,0
FENGYUN 1C DEB,1999-025ASD,2021-03-01T04:21:07.796736,14.22238508,.0016608,98.9003,135.8669,246.6979,113.2450,0,U,30719,999,72420,.46133E-3,.98E-5,0
FENGYUN 1C DEB,1999-025ASE,2021-03-01T13:24:03.273408,14.21508931,.0034896,98.8883,177.5684,320.9710,101.3095,0,U,30720,999,72616,.1913E-3,.376E-5,0
FENGYUN 1C DEB,1999-025ASF,2021-03-01T03:42:45.266112,14.29632487,.005947,98.7419,135.7777,159.4170,231.2311,0,U,30721,999,72666,.36724E-3,.914E-5,0
FENGYUN 1C DEB,1999-025ASG,2021-02-28T16:56:32.460864,14.27409581,.0294565,98.2764,331.8170,155.1125,206.4598,0,U,30722,999,71373,.10141E-2,.3907E-4,0
FENGYUN 1C DEB,1999-025ASH,2021-03-01T13:27:30.318912,14.21069431,.0015528,98.9371,95.6267,298.4687,213.7643,0,U,30723,999,72440,.38041E-3,.781E-5,0
FENGYUN 1C DEB,1999-025ASJ,2021-03-01T14:11:44.004192,14.31497998,.0100473,99.3003,101.4243,278.9891,237.7539,0,U,30724,999,73422,.71141E-4,.148E-5,0
FENGYUN 1C DEB,1999-025ASK,2021-03-01T09:00:24.372576,14.05814499,.0099697,99.1348,95.2751,244.0497,239.7161,0,U,30725,999,71732,.23103E-3,.348E-5,0
FENGYUN 1C DEB,1999-025ASL,2021-03-01T08:18:20.388384,14.00983384,.0088626,99.1296,18.0355,15.8756,137.7153,0,U,30726,999,71462,.39978E-3,.574E-5,0
FENGYUN 1C DEB,1999-025ASN,2021-03-01T12:08:13.983360,14.22635672,.0100701,98.6475,91.6230,120.4694,240.6477,0,U,30728,999,72841,.20384E-4,.6E-7,0
FENGYUN 1C DEB,1999-025ASQ,2021-03-01T09:18:12.914208,14.16448708,.0089345,98.7856,108.2906,43.2198,78.4785,0,U,30730,999,72212,.25504E-3,.484E-5,0
FENGYUN 1C DEB,1999-025ASR,2021-03-01T01:26:33.277632,14.21515944,.0017907,98.9677,82.6998,279.6740,102.7783,0,U,30731,999,72409,.44502E-3,.93E-5,0
FENGYUN 1C DEB,1999-025ASS,2021-03-01T01:04:46.119936,14.01461809,.0132777,98.9955,100.6190,31.9916,359.5311,0,U,30732,999,71696,.29202E-3,.433E-5,0
FENGYUN 1C DEB,1999-025AST,2021-03-01T05:33:26.216352,14.70423181,.0060955,99.0331,156.2533,345.5779,14.3682,0,U,30733,999,74282,.37314E-3,.2261E-4,0
FENGYUN 1C DEB,1999-025ASU,2021-03-01T04:09:05.423616,15.18354489,.0041607,98.9701,290.3609,240.6482,119.0589,0,U,30734,999,75192,.67923E-3,.14195E-3,0
FENGYUN 1C DEB,1999-025ASV,2021-02-28T15:17:30.185952,14.11869204,.0072455,98.8813,125.9668,193.7804,321.1610,0,U,30735,999,72006,.33506E-3,.583E-5,0
FENGYUN 1C DEB,1999-025ASW,2021-03-01T12:35:10.476384,13.54397045,.029685,98.7669,258.9720,259.0276,124.6573,0,U,30736,999,69152,.47096E-3,.386E-5,0
FENGYUN 1C DEB,1999-025ASX,2021-03-01T01:14:48.893856,14.15507951,.002585,98.5711,91.1422,122.5507,270.4420,0,U,30737,999,72291,.78836E-4,.113E-5,0
FENGYUN 1C DEB,1999-025ASY,2021-02-28T20:31:12.368064,14.26037260,.0059522,99.3800,22.4388,192.1654,167.8089,0,U,30738,999,72354,.57461E-3,.1348E-4,0
FENGYUN 1C DEB,1999-025ASZ,2021-03-01T13:44:35.689056,14.11833968,.0104434,98.6692,83.8102,260.5788,254.2115,0,U,30739,999,72190,.76357E-4,.103E-5,0
FENGYUN 1C DEB,1999-025ATA,2021-02-28T03:09:21.509280,14.25470439,.0048276,98.7501,131.3364,240.4647,119.1715,0,U,30740,999,72592,.40156E-3,.915E-5,0
FENGYUN 1C DEB,1999-025ATB,2021-03-01T12:50:57.086880,14.11985129,.0007238,98.8127,92.7893,56.0933,102.6170,0,U,30741,999,72154,.52281E-4,.52E-6,0
FENGYUN 1C DEB,1999-025ATC,2021-02-27T14:57:51.347808,14.01419522,.0083075,98.9785,111.4833,71.9352,57.1858,0,U,30742,999,71485,.11715E-3,.139E-5,0
FENGYUN 1C DEB,1999-025ATE,2021-03-01T09:49:51.988800,14.32198126,.0020979,98.7685,131.2809,142.6416,347.0236,0,U,30744,999,72831,.38253E-3,.988E-5,0
FENGYUN 1C DEB,1999-025ATF,2021-03-01T09:33:23.768928,14.35265814,.0026619,99.2733,42.5890,299.5594,224.5077,0,U,30745,999,72826,.49956E-3,.1386E-4,0
FENGYUN 1C DEB,1999-025ATG,2021-03-01T14:18:07.082784,14.22162984,.0048767,98.8981,181.0522,305.2287,121.5283,0,U,30746,999,72576,.18145E-3,.361E-5,0
FENGYUN 1C DEB,1999-025ATK,2021-03-01T12:39:53.540064,13.99128131,.0057867,99.0985,98.2978,16.9099,343.3977,0,U,30749,999,71529,.2523E-3,.326E-5,0
FENGYUN 1C DEB,1999-025ATL,2021-03-01T13:05:19.725216,14.13972071,.0049882,99.0370,91.8426,45.8372,107.8917,0,U,30750,999,72001,.45381E-3,.827E-5,0
FENGYUN 1C DEB,1999-025ATM,2021-03-01T14:40:20.322912,14.05607480,.0059104,98.9805,116.8974,329.6769,185.9316,0,U,30751,999,71670,.49837E-3,.779E-5,0
FENGYUN 1C DEB,1999-025ATN,2021-03-01T06:53:39.338304,14.36603028,.0026627,98.8795,180.8869,109.4610,280.5368,0,U,30752,999,72801,.66546E-3,.1919E-4,0
FENGYUN 1C DEB,1999-025ATP,2021-03-01T08:24:41.592096,14.05898754,.0060914,98.9536,105.1359,227.1382,132.4660,0,U,30753,999,71755,.23145E-3,.341E-5,0
FENGYUN 1C DEB,1999-025ATR,2021-03-01T14:00:21.908160,14.36197822,.0173067,98.3183,96.3325,131.6455,18.9078,0,U,30755,999,73314,.99921E-4,.3E-5,0
FENGYUN 1C DEB,1999-025ATS,2021-03-01T01:02:20.400288,14.07959803,.0083855,99.1152,90.8758,191.9827,202.0423,0,U,30756,999,71746,.30881E-3,.496E-5,0
FENGYUN 1C DEB,1999-025ATU,2021-03-01T12:03:40.080672,14.08423779,.0044563,98.9789,155.7092,242.5027,181.7650,0,U,30758,999,71842,.24481E-3,.378E-5,0
FENGYUN 1C DEB,1999-025ATV,2021-02-28T20:03:21.390336,14.27465882,.0013878,99.2744,12.7948,194.3160,220.4526,0,U,30759,999,72568,.44583E-3,.1046E-4,0
FENGYUN 1C DEB,1999-025ATW,2021-03-01T07:37:32.808576,14.03555523,.0053898,98.8623,86.0084,189.0116,171.0089,0,U,30760,999,71699,-.11306E-3,-.223E-5,0
FENGYUN 1C DEB,1999-025ATX,2021-03-01T12:40:25.362048,14.26720513,.0095676,99.0978,264.9152,343.0195,16.7789,0,U,30761,999,72774,.15373E-3,.342E-5,0
FENGYUN 1C DEB,1999-025ATY,2021-03-01T13:12:11.325312,13.95069414,.0205903,98.9132,93.2076,75.0838,77.0275,0,U,30762,999,71257,.26009E-3,.377E-5,0
FENGYUN 1C DEB,1999-025ATZ,2021-03-01T10:43:57.933120,14.21328698,.0038293,98.9356,57.6476,352.6667,163.9178,0,U,30763,999,72113,.65568E-3,.1395E-4,0
FENGYUN 1C DEB,1999-025AUA,2021-03-01T05:32:25.051200,14.79571302,.0185967,98.7497,168.8842,57.7724,6.0104,0,U,30764,999,75159,.89275E-4,.82E-5,0
FENGYUN 1C DEB,1999-025AUB,2021-03-01T09:35:52.184256,14.08635988,.0074536,98.9661,105.9882,104.5777,325.4212,0,U,30765,999,72312,.2036E-3,.315E-5,0
FENGYUN 1C DEB,1999-025AUC,2021-03-01T08:17:32.254080,14.04613732,.0087084,98.7863,105.0293,317.8473,100.7704,0,U,30766,999,38235,.31225E-3,.473E-5,0
FENGYUN 1C DEB,1999-025AUE,2021-03-01T11:03:55.883808,14.26239215,.0037813,98.7199,128.2172,207.9958,274.8673,0,U,30768,999,72842,.32975E-3,.752E-5,0
FENGYUN 1C DEB,1999-025AUG,2021-03-01T13:53:15.849024,14.13119896,.001316,98.7663,92.4858,226.1260,291.1347,0,U,30770,999,72215,.78366E-4,.103E-5,0
FENGYUN 1C DEB,1999-025AUH,2021-03-01T06:59:59.769600,14.17826017,.0033238,98.8351,353.5151,319.2243,40.6445,0,U,30771,999,72159,.45807E-3,.895E-5,0
FENGYUN 1C DEB,1999-025AUJ,2021-03-01T00:29:26.009952,14.68118758,.0047956,99.0253,88.2970,149.5490,241.2818,0,U,30800,999,73786,.51356E-3,.2943E-4,0
FENGYUN 1C DEB,1999-025AUL,2021-03-01T03:27:13.892256,14.17134393,.0022811,98.9430,112.3869,30.8764,31.4798,0,U,30802,999,72360,.38112E-3,.725E-5,0
FENGYUN 1C DEB,1999-025AUM,2021-03-01T10:20:48.793920,14.00943148,.0120338,99.2211,36.9551,350.9868,159.0004,0,U,30803,999,71466,.3564E-3,.522E-5,0
FENGYUN 1C DEB,1999-025AUN,2021-03-01T07:12:13.351392,14.46030749,.0209134,98.8737,0.9881,39.0868,112.2504,0,U,30804,999,74167,.83458E-4,.331E-5,0
FENGYUN 1C DEB,1999-025AUP,2021-03-01T10:24:18.074592,13.99148216,.0071708,98.9759,128.0580,86.0938,340.0181,0,U,30805,999,71501,-.76756E-4,-.157E-5,0
FENGYUN 1C DEB,1999-025AUQ,2021-03-01T05:46:59.251584,13.66863380,.0273533,99.1486,161.9966,17.7815,35.8494,0,U,30806,999,69798,.20107E-3,.176E-5,0
FENGYUN 1C DEB,1999-025AUT,2021-02-28T21:44:19.766112,14.14428396,.0064576,98.8713,133.9265,143.7694,216.7878,0,U,30809,999,72290,.41465E-3,.766E-5,0
FENGYUN 1C DEB,1999-025AUU,2021-03-01T09:47:07.521216,13.80774707,.0232818,98.6455,332.0459,164.1545,196.7056,0,U,30810,999,70130,.89098E-3,.1113E-4,0
FENGYUN 1C DEB,1999-025AUV,2021-02-28T23:02:57.494688,13.54664808,.0295738,98.7667,259.2952,254.3189,102.5144,0,U,30811,999,69154,.49723E-3,.411E-5,0
FENGYUN 1C DEB,1999-025AUX,2021-03-01T09:24:33.469056,14.79058070,.0054388,98.9245,105.1985,229.2754,130.3724,0,U,30813,999,74345,.39147E-3,.2902E-4,0
FENGYUN 1C DEB,1999-025AUY,2021-03-01T13:07:12.375264,14.27903496,.0053172,99.1138,280.2596,313.6054,76.1413,0,U,30814,999,72642,.33018E-3,.781E-5,0
FENGYUN 1C DEB,1999-025AUZ,2021-03-01T10:46:58.187712,14.28992104,.0002746,99.3367,39.3581,79.7728,77.6540,0,U,30815,999,72618,.47193E-3,.1144E-4,0
FENGYUN 1C DEB,1999-025AVA,2021-03-01T08:42:13.253760,14.06257692,.005999,99.0394,112.6747,289.1453,129.1514,0,U,30816,999,71762,.47277E-3,.746E-5,0
FENGYUN 1C DEB,1999-025AVB,2021-03-01T07:43:18.621120,13.98442176,.0067236,98.8488,99.8172,57.6366,303.1282,0,U,30817,999,71471,.32328E-3,.43E-5,0
